ONEWEB-0300             
1 49089U 21075Q   25362.48555285 -.00000119  00000+0 -36601-3 0  9996
2 49089  87.8928  24.5552 0002049  90.8550 269.2813 13.12443365212816
ONEWEB-0301             
1 49090U 21075R   25362.46945675 -.00000178  00000+0 -53154-3 0  9999
2 49090  87.8943  24.5606 0002154  93.3137 266.8238 13.12443139212173
ONEWEB-0302             
1 49091U 21075S   25362.45589043  .00000226  00000+0  59411-3 0  9996
2 49091  87.8928  24.5710 0001411  96.8840 263.2449 13.12440972212152
ONEWEB-0304             
1 49092U 21075T   25362.16007632  .00000027  00000+0  35376-4 0  9998
2 49092  87.9104  39.8676 0001783 102.7075 257.4256 13.17651022211053
ONEWEB-0305             
1 49093U 21075U   25362.15334738  .00000056  00000+0  11003-3 0  9990
2 49093  87.9103  39.8469 0001899 110.6704 249.4632 13.17648035211080
ONEWEB-0308             
1 49094U 21075V   25362.44910859  .00000501  00000+0  13582-2 0  9995
2 49094  87.8928  24.5653 0001768  92.6174 267.5157 13.12442522212167
ONEWEB-0309             
1 49095U 21075W   25362.15672281 -.00000005  00000+0 -47005-4 0  9998
2 49095  87.9104  39.8618 0001351  99.4774 260.6511 13.17648798211057
ONEWEB-0310             
1 49096U 21075X   25362.46437583 -.00000041  00000+0 -15061-3 0  9993
2 49096  87.8922  24.5981 0001734  92.7725 267.3602 13.12443001212798
